Charger Name,Address,Suburb,State,Postal Code,Power (kW),Usage Cost,Number of Points,Connection Types,latitude,longitude
RMIT - City Campus,17-21 Cardigan Street,carlton,VIC,3053,"75, 22",AUD 0.30 per kWh,1.0,"33, 25",-37.8004228,144.9684343
100 St Kilda Rd,100 St Kilda Rd,southbank,AU-VIC,AU,,,,1,-37.8253618,144.9640203
11 Nicholson Street,11 Nicholson Street,carlton,AU-VIC,AU,,,,1,-37.8004228,144.9684343
Lorbek Luxury Cars,30 Prohasky Street,port melbourne,Victoria,3207,11,$0.31/kWh,8.0,1036,-37.8333613,144.9219203
Tesla Supercharger South Melbourne,Clarendon Street,south melbourne,VIC,,250,,6.0,33,-37.83344,144.9570533
Collingwood Library,13 Stanton St,abbotsford,VIC,3067,"50, 50, 50, 50",$0.40/kWh,2.0,"33, 2, 33, 2",-37.8045508,144.9988542
JET Charge Office,350 Bridge Street,port melbourne,VIC,3207,"80, 80, 22",AUD 0.60 per kWh,1.0,"2, 33, 1036",-37.8333613,144.9219203
Evie Richmond Library,Swan Street,richmond,VIC,,50,,1.0,33,-37.80745,144.9907213
650 Church Street Building 5,Church Street,melbourne,Victoria,3121,120,AUD 0.42/kWh;other tariffs for older cars,4.0,33,-37.8142454,144.9631732
Woolworths Fishermans Bend,Plumber Street,fishermans bend,VIC,,50,,2.0,33,-37.8245644,144.922933
Middy’s Port Melbourne,2 Thackray Road,port melbourne,Victoria,3207,"25, 25",$0.40 per kWh (at all times),1.0,"33, 2",-37.8333613,144.9219203
Ampcharge Barkly Square,Barkly Street,brunswick,VIC,,150,,8.0,33,-37.7664715,144.9613103
ENGIE - VIctoria Gardens,620 Victoria St,richmond,Vic,3121,"100, 100",AUD 0.54 per kWh (3pm-10am) AUD 0.37 per kWh (10am - 3pm),1.0,"2, 33",-37.80745,144.9907213
GET Electric Head Office,327 Plummer Street,port melbourne,Victoria,3207,11,$0.24/kWh,6.0,25,-37.8333613,144.9219203
Brunswick EV Hub,15 Edward Street,brunswick,Victoria,3056,"80, 7",Free,4.0,"33, 25",-37.7664715,144.9613103
David Street Car Park,1 David St,brunswick,Victoria,3056,22,Free,2.0,25,-37.7664715,144.9613103
RMIT Brunswick,25 Dawson St,brunswick,Victoria,3056,22,$0.30 per kWh,1.0,25,-37.7664715,144.9613103
Fleming Park,4 -6 Cross St,brunswick east,Victoria,3057,"7, 7",Free,2.0,"25, 25",-37.7688802,144.9776825
The Parade Ascot Vale Car Park,66-68 The Parade,ascot vale,Victoria,3032,"50, 50, 50, 50",$0.40 per kWh parking overstay charges may apply.,2.0,"2, 33, 33, 2",-37.7753252,144.921825
Moonee Ponds,Moonee Ponds,nan,,3039,120,AUD 0.42/kWh;other tariffs for older cars,6.0,33,-37.8688729,145.2126338
Moonee Ponds Central,14 - 16 Hall St,moonee ponds,Victoria,3039,"22, 22",Free,1.0,"1, 25",-37.765935,144.9192614
St Kilda Town Hall,164 Carlisle Street,st kilda,Vic,3182,"3.5, 2.4",Free,2.0,"25, 29",-37.8638261,144.981637
Swinburne University - TC Building,Falmouth Street,hawthorn,Victoria,3122,"50, 50",Charging is free. Parking is free.,1.0,"33, 2",-37.8244246,145.0317207
City of Stonnington,290 Glenferrie Road,malvern,VIC,3144,"50, 50",AUD 0.45 per kWh,1.0,"33, 2",-37.8576088,145.0350666
Malvern Central,122 Wattletree Rd,armadale,Victoria,3144,"50, 50, 50, 50",$0.40 per kWh. Parking overstay charges may apply,2.0,"33, 2, 33, 2",-37.8563442,145.0193207
Coburg Civic Centre / Moreland City,90 Bell Street,coburg,Victoria,3058,"50, 22, 50",Free,4.0,"33, 25, 2",-37.7449752,144.9643314
Coburg Town Hall / Moreland City,Bell Street,melbourne,Victoria,3058,7,Free,2.0,25,-37.8142454,144.9631732
Camberwell Supercharger,793 Burke Road,camberwell,VIC,3124,120,AUD 0.42/kWh;other tariffs for older cars,6.0,33,-37.8384623,145.0740767
Monash Caufield,880 Dandenong Rd,malvern east,Vic,3145,"50, 50",Free,1.0,"33, 2",-37.876835,145.0658739
Bayside Gateway,301-307 Nepean Hwy,brighton east,Victoria,3186,"75, 75",55c/kWh,6.0,"2, 33",-37.9171728,145.0163663
Austin Tower Carpark Level B1,145 Studley Road,heidelberg,Victoria,3084,"22, 22",$0.25 per kWh,4.0,"25, 25",-37.7524788,145.0701284
Coburg North EV Fast Charge,11 Boundary Road,coburg north,Victoria,3058,"50, 50",Free to use for a 1 hour session.,1.0,"33, 2",-37.7272635,144.9678538
Oak Park Sports & Aquatic Centre,563 Pascoe Vale Road,oak park,Victoria,3064,"22, 7", Free to use for 3 hour sessions,3.0,"25, 1",-37.7180181,144.9215041
Bayside Willansby Ave,47 Willansby Ave,brighton,VIC,3186,"50, 50, 50, 50",$0.45 per kWh,2.0,"33, 2, 2, 33",-37.9081962,144.9957991
Woolworths Heidelberg,451 Lower Heidelberg Road,heidelberg,Victoria,3084,"44, 44, 7, 7, 7, 7, 7, 7",Free,16.0,"33, 33, 25, 25, 25, 25, 25, 25",-37.7524788,145.0701284
Tesla Supercharger Brighton East,Hope Street,brighton east,Victoria,3186,250,$0.69/kWh,3.0,33,-37.9171728,145.0163663
Toyota Altona,Grieve Parade,altona,VIC,,"75, 75",,3.0,"33, 2",-37.8671503,144.8294637
CB Smith Reserve,99 Jukes Road,fawkner,Victoria,3060,"25, 25",Free,1.0,"33, 2",-37.7146535,144.9605402
Hobsons Bay Civic Centre,115 Civic Parade,altona,Victoria,3018,"50, 50",Free,1.0,"33, 2",-37.8671503,144.8294637
Chargefox Airport West,29-35 Louis St,airport west,Victoria,3042,"50, 350, 50, 50, 50","$0.65 per kwH, discount for RACV members",6.0,"2, 33, 33, 33, 2",-37.7222576,144.8834942
Chadstone Shopping Centre,1341 Dandenong Rd,nan,Victoria,3148,"7, 7, 7, 7, 7, 7",Free,6.0,"25, 25, 25, 25, 25, 25",-37.8688729,145.2126338
ENGIE - Chadstone,1341 Dandenong Rd,chadstone,Victoria,3148,"100, 100",$0.45 per kWh,4.0,"33, 2",-37.8822799,145.1001365
ENGIE - Chadstone 2,Dandenong Road,chadstone,VIC,,120,,4.0,33,-37.8822799,145.1001365
Tesla Supercharger Campbellfield,Camp Road,campbellfield,Victoria,3060,250,69c / KwH,1.0,33,-37.6641298,144.959583
Ampol Foodary Altona North,1 Horsburgh Drive,altona north,Victoria,3025,"180, 100",$0.60/kWh for pay-as-you-go charging.,4.0,"33, 2",-37.8378229,144.8342853
Bridge Street,Bridge Street,hampton,Victoria,3191,"180, 100",$0.60/kWh for pay-as-you-go charging.,1.0,"33, 2",-37.9381127,145.0014764
Telsa Supercharger Box Hill,Ailsa Street,box hill south,Victoria,3128,250,,12.0,33,-37.8366236,145.1233644
Evie Glen Gala Village,Fitzgerald Road,sunshine west,VIC,,"75, 50",,4.0,"33, 2",-37.7983442,144.8110919
Miller Grove,Miller Grove,nan,Victoria,3149,22,free,2.0,33,-37.8688729,145.2126338
Keilor Central,80 Taylors Road,keilor downs,Victoria,3038,"50, 50, 50, 50",$0.50 per kWh,2.0,"33, 2, 33, 2",-37.7205762,144.8047614
Tesla Supercharger Oakleigh Repair Centre,Huntingdale Road,oakleigh south,VIC,,250,Supercharger rates,6.0,33,-37.9248257,145.0921745
Bayside Council,76 Royal Ave,sandringham,VIC,3191,"75, 75, 50, 50, 22, 22, 22",0.30c/kWh,1.0,"33, 33, 33, 2, 25, 25, 25",-37.9502592,145.0043868
Jolt Cheltenham,Bay Road,cheltenham,VIC,,"50, 50",,1.0,"33, 2",-37.9670081,145.0546951
Uni Hill Town Centre,19 Graduate Drive,bundoora,Victoria,3082,"50, 50, 50, 50",$0.40 / Kwh,2.0,"33, 2, 33, 2",-37.6982468,145.0596757
Greensborough Plaza,25 Main St,greensborough,Victoria,3088,"22, 22",Free,4.0,"1036, 25",-37.7037383,145.1079105
Watermarc Carpark (LG),Greensborough Walk,nan,Victoria,3088,11,0,3.0,25,-37.8688729,145.2126338
Forest Hill Chase Shopping Centre,Pacific Way,forest hill,Victoria,3131,22,Free,2.0,25,-37.8362738,145.1690911
Brimbank Shopping Centre,28-72 Neale Road,deer park,Victoria,3023,22,Free,1.0,25,-37.7686602,144.7713077
Southland Medical Centre,50 Chesterville rd,cheltenham,Victoria,3192,,,1.0,,-37.9670081,145.0546951
Research Way - N1 Carpark,Research Way,nan,Victoria,3800,"22, 50, 50",Free,2.0,"1036, 33, 2",-37.8688729,145.2126338
Ampol Derrimut,354a Robinsons Rd,derrimut,Vic,3026,"180, 100",$0.60/kWh for pay-as-you-go charging.,1.0,"33, 2",-37.7987978,144.776051
Jolt Black Rock,Balcolme Road,black rock,VIC,,"50, 50",,1.0,"33, 2",-37.9706564,145.0212822
BP Northpoint,1 Scanlon Drive,epping,Victoria,3076,150,,8.0,33,-37.6523847,145.0315487
Eltham Leisure Centre,40 Brougham Street,eltham,Victoria,3095,"7, 7",Free,4.0,"25, 25",-37.713736,145.147673
Engie - The Glen,235 Springvale Rd,glen waverley,Vic,3150,"100, 100",AUD 0.45 per kWh,1.0,"33, 2",-37.8795908,145.1622405
BP pulse Diamond Creek,274 Diamond Creek Road,diamond creek,Victoria,3090,"75, 75",55c/kWh,2.0,"2, 33",-37.6733272,145.1588075
BP pulse Diamond Creek,274 Diamond Creek Road,diamond creek,Victoria,3090,"75, 75",55c/kWh,2.0,"2, 33",-37.6733272,145.1588075
BP Pulse,Ballarat Road,caroline springs,VIC,,150,,8.0,33,-37.7340623,144.7370017
Shell Coles Express Taylors Lakes,410 Melton Highway,taylor lakes,Victoria,3038,"350, 350",$AU 0.60/kWh,2.0,"33, 2",,
Watergardens Shopping Centre,399 Melton Highway,sydenham,Victoria,3037,22,,3.0,25,-37.6997223,144.7653295
Point Cook Town Centre,Dunnings Road,point cook,Victoria,3030,7,Free,1.0,1036,-37.9064862,144.7533059
Red Rooster Vermont,,ringwood,Victoria,3134,"50, 50, 50, 50",Payment Required $0.40 per kWh parking overstay charges may apply.,4.0,"33, 2, 33, 2",-37.8158726,145.2291113
Greenvale Woolworths,200 James Mirams Drive,roxburgh park,Victoria,3064,22,,2.0,25,-37.6381563,144.9353302
Ampcharge Sandown,Princes Highway,sandown,VIC,,180,,2.0,33,-37.9503548,145.1665966
Bunnings Tarneit,83 Leakes Rd,tarneit,,3029,22,Free,2.0,25,-37.8321522,144.69462
EastLand Shopping Centre,Maroondah Highway,melbourne,Victoria,3134,22,,4.0,1036,-37.8142454,144.9631732
diamond creek community bank stadium,Main Hurstbridge Road,diamond creek,Victoria,3089,22,currently free,1.0,25,-37.6733272,145.1588075
diamond creek community bank stadium,Main Hurstbridge Road,diamond creek,Victoria,3089,22,currently free,1.0,25,-37.6733272,145.1588075
Bay Trail,Bay Trail,moordialloc,Victoria,3195,"50, 50",,1.0,"33, 2",-38.0102322,145.0929673
Bembit Bagrook Community Centre,61 Polly Parade,tarneit,Victoria,3029,"50, 50",Free,1.0,"33, 2",-37.8321522,144.69462
Scorseby Engie,,nan,Victoria,3179,"100, 100",AUD 0.55 per kWh,2.0,"33, 2",-37.8688729,145.2126338
Jolt Bayswster,Station Street,nan,Victoria,3153,"25, 25","First 7kWh free, then $0.40 per kWh thereafter. $5/hr idle time",1.0,"2, 33",-37.8688729,145.2126338
Stud Park Shopping Centre,cnr Fulham Road & Stud Road,rowville,Victoria,3178,"50, 50, 50, 50",$0.40 per kWh. Parking overstay charges may apply,2.0,"33, 2, 33, 2",-37.9239267,145.2447672
Civic Centre,45 Princes Highway,werribee,Victoria,3030,"50, 50, 50",Free,4.0,"33, 33, 2",-37.907984,144.6416748
Ampcharge Werribee,Cherry Street,werribee,VIC,,180,,1.0,33,-37.907984,144.6416748
Devon Street Car Park,4 - 16 Devon Street,croydon,Victoria,3136,"7, 7",Free,4.0,"25, 25",-37.7955004,145.2801507
Ampcharge Cheltenham,Cheltenham Road,keysborough,VIC,,180,,2.0,33,-38.0053607,145.1674069
Strata Equity – Hunter Werribee,22 Synnot Street,werribee,Victoria,3030,"22, 22, 22",Free,3.0,"25, 25, 25",-37.907984,144.6416748
Club Trillium,11/19 Trillium Boulevard,mickleham,Victoria,3064,,,1.0,1,-37.5344793,144.9120372
bp pulse Dandenong North,Heatherton Rd & Stud Rd,dandenong north,Victoria,3802,75,55c/kWh,2.0,33,-37.9558319,145.2143234
Heatherton Road,Heatherton Road,dandenong,Victoria,3175,"350, 350",$0.60 / kWh,2.0,"33, 2",-37.98749,145.2147923
Ampol Kilsyth,Canterbury & Gatwick Road,kilsyth south,Victoria,3153,"150, 125",$0.69/kWh for pay-as-you-go charging.,1.0,"33, 2",-37.8315054,145.3110008
Evie Chelsea,1 Swansea Rd,chelsea,Victoria,3196,"50, 50, 50, 50",$0.40 per kWh. Parking overstay charges may apply,1.0,"33, 2, 33, 2",-38.0497386,145.121407
Evie Chirnside Park,Fletcher Street,chirnside park,VIC,,"50, 50",,1.0,"33, 2",-37.9047634,144.6530424
bp pulse Merrifield,470 Donnybrook Road,mickleham,Victoria,3064,"75, 75",55c/kWh,4.0,"33, 33",-37.5344793,144.9120372
Marnong Estate,2335 Mickleham Road,mickleham,Victoria,3064,22,,4.0,25,-37.5344793,144.9120372
Lollypop Creek Community Centre,Shipwright Parade,harpley,VIC,,50,,2.0,33,-37.9110402,144.6113082
Hungry Jacks,27 Gap Road,sunbury,Victoria,3429,11,$0.25/kWh,2.0,25,-37.5791363,144.7279832
Cobblebank Village,201 Ferris Road,nan,Victoria,3338,"22, 22",Free,1.0,"2, 33",-37.8688729,145.2126338
Cobblebank Stadium,Cnr Astley Dr and Bridge Rd,cobblebank,Victoria,3338,"25, 25, 22",Free,3.0,"33, 2, 25",-37.7125512,144.6040773
Yarra Valley Nissan,460 - 462 Maroondah Highway,lilydale,Victoria,3140,11,$0.31 per kWh,2.0,25,-37.7571582,145.3458656
McDonald’s Melton South,179-253 Exford Road,weir views,Victoria,3338,"50, 50, 50, 50",$AU 0.40/kWh,2.0,"33, 2, 33, 2",-37.7323715,144.5708942
Local Village Carrum Downs,1066 Frankston - Dandenong Rd,carrum downs,VIC,3201,"50, 50, 50, 50",$0.45 per kWh. Parking overstay charges may apply,2.0,"33, 2, 33, 2",-38.1003312,145.1788657
CTR Whittlesea,74A Church St,whittlesea,Vic,3757,"50, 50","0.40/kWh + While parked, not charging: 4.00/hr after 60 mins",1.0,"33, 2",-37.5121301,145.1177321
City of Casey,Princes Highway,city of casey,Victoria,3805,7,Free,2.0,25,-38.0266156,145.3045626
Lynbrook Village,75S Lynbrook Boulevard,lynbrook,Victoria,3975,"50, 50, 50, 50",$0.40 per kWh. Parking overstay charges may apply,2.0,"33, 2, 2, 33",-38.0558639,145.2561128
ENGIE - Bayside Centre,15 Beach Street,frankston,VIC,3199,50,AUD 0.45 per kWh,1.0,33,-38.150925,145.142239
Yarra Ranges Council,45 Bell St,yarra glen,Victoria,3775,"50, 50",Payment Required $0.40 per kWh (at all times),1.0,"33, 2",-37.6573475,145.3743964
Engie Monash University,McMahons Road,melbourne,Victoria,3199,"120, 120",,3.0,"2, 33",-37.8142454,144.9631732
Evie Cranbourne Homemaker Centre,South Gippsland Highway,cranbourne,Victoria,3977,"50, 50",,1.0,"33, 2",-38.0997308,145.2807256
St Huberts Winery,1/3 St Huberts Road,coldstream,Victoria,3770,11,$0.31/kWh,6.0,25,-37.7291014,145.378424
BP Pulse Cranbourne,Cranbourne-Frankston Road,cranbourne west,Victoria,3977,"75, 75",$0.55/kWh,1.0,"33, 2",-38.102241,145.2517182
Jolt Berwick Springs Hotel,Clyde Road,berwick,VIC,,"50, 50",,1.0,"33, 2",-38.0398297,145.3451089
Engie Cranbourne Park,Cranbourne Drive,nan,Victoria,3977,"120, 120",,3.0,"2, 33",-37.8688729,145.2126338
Wallan,85 High Street,wallan,Victoria,3756,"50, 50",,1.0,"33, 2",-37.5040691,145.1090152
ClydeStone Square,Matterhorn Drive ,clyde north,VIC,3978,"50, 50",AUD 0.40 per kWh,1.0,"33, 2",-38.1028681,145.3302814
Evie Mornington,Cromwell Street,mornington,Victoria,3931,"50, 50, 50",,2.0,"33, 2, 33",-38.227699,145.0609375
Mornington Super Charger,Mornington-Tyabb Road,nan,Victoria,3931,250,,6.0,33,-37.8688729,145.2126338
RACV Healsville,Healsville - Yarra Glen Road,healsville,VIC,,"7, 50",,7.0,"25, 33",-37.6635261,145.4817549
Evie Healsville,River Street,healsville,VIC,,"50, 50",,1.0,"33, 2",-37.6635261,145.4817549
North Bellarine Aquatic Centre,30 Peninsula Drive,curlewis,Victoria,3222,"50, 50, 50, 50",$0.45/kWh,2.0,"33, 2, 33, 2",-37.8148997,145.1062282
Victoria Street,Victoria Street,macedon,Victoria,3440,"50, 50",$0.45 per kWh,1.0,"33, 2",-37.7726251,145.1131159
50 Learmonth Street,50 Learmonth Street,queenscliff,Victoria,3225,"50, 50, 50, 50",$0.45 per kWh,2.0,"33, 2, 33, 2",-38.3363033,144.7453366
Evie Yarra Juncion,Park Road,yarra junction,VIC,,"50, 50",,1.0,"33, 2",-37.7821693,145.6150255
Kilmore Library,12 Sydney Street,kilmore,Victoria,3764,"25, 25",$0.40 per kWh,1.0,"33, 2",-37.6750485,144.9242188
Geelong Supercharger,470-510 Princes Highway,corio,Victoria,3214,250,$0.78/kWh,6.0,33,-37.9623312,145.1346687
Hastings,34 King Street,hastings,Victoria,3915,"50, 50",Payment Required $0.45 per kWh,1.0,"33, 2",-38.3056058,145.1859934
Kingston Village Square,Grubb Rd,ocean grove,Victoria,3226,"50, 50, 22",Payment Required $0.25 per kWh (at all times),3.0,"33, 2, 25",-38.170954,145.0972517
Sorrento ,860 Melbourne Rd,nan,Victoria,3943,"50, 50, 50, 50","0.40/kWh + While parked, not charging: 4.00/hr after 60 mins",2.0,"33, 2, 33, 33",-37.8688729,145.2126338
Rosebud RSL,2 Dunsmuir Drive,nan,Victoria,3940,"None, 50, None",,2.0,"0, 2, 1",-37.8688729,145.2126338
bp pulse Rye,Cnr Weir St & Point Nepean Road,rye,Victoria,3941,75,55c/kWh,2.0,33,-38.3821684,144.8099264
High St Parking,124 High Street,woodend,Victoria,3442,"50, 50",$0.40 per kWh. Parking overstay charges may apply,2.0,"33, 2",-37.7934621,144.5595902
Geelong West Veledrome,Weddell Road,geelong west,VIC,,22,,2.0,25,-37.8054508,144.879879
Bru4U Geelong ,4/100 Barwon Terrace,geelong,Victoria,3220,22,free,1.0,1036,-37.8396934,145.008539
Broadford Library,113 High Street,broadford,Victoria,3658,"25, 25",$0.40 per kWh,1.0,"33, 2",-37.6362329,145.0265708
RACV Solar Grovedale,8 Lewalan Street,grovedale,Victoria,3216,22,$0.25 per kWh,1.0,25,-37.8171289,145.0949242
Blue Tongue Industries,8 Lewalan St,grovedale,Victoria,3216,22,$0.30 per kWh,1.0,25,-37.8171289,145.0949242
Evie Barabool Heights Plaza,Province Blvd,highton,VIC,,"50, 50",,4.0,"33, 2",-37.8163364,145.0687942
Armstrong Creek East Community Hub,46 Central Boulevard,armstrong creek,Victoria,3217,"22, 22, 22",Free,6.0,"25, 25, 25",-37.6289691,145.8640385
Leisurelink Aquatic & Recreation Centre,240 Pioneer Rd,waurn ponds,VIC,3216,"50, 50, 50, 50",$0.45 per kWh,2.0,"33, 2, 33, 2",,
Armstrong Creek Shopping Centre,540 Torquay Rd,armstrong creek,Victoria,3216,7,Free,2.0,25,-37.6289691,145.8640385
Deakin University Waurn Ponds,Carpark 1 Kings Way,nan,Victoria,3216,"22, 22",Free,4.0,"25, 25",-37.8688729,145.2126338
Trentham Visitor Information Centre,Albert Street,trentham,Vic,,"50, 50",,2.0,"33, 2",-37.7000743,144.8908894
Evie Flinders,33 Cook St,flinders,VIC,3929,"50, 50",$0.45 per kWh,1.0,"33, 2",-38.473312,145.0187057
Evie Bannockburn,High Street,bannockburn,VIC,,"50, 50",,1.0,"33, 2",-37.732231,145.1014989
Evie Cowes,Chapel Street,cowes,Vic,,"50, 50",,4.0,"33, 2",-37.7092585,144.7872516
Kyneton,1 Hutton Street,kyneton,Victoria,3444,"50, 50",Payment Required $0.40 per kWh parking overstay charges may apply.,1.0,"33, 2",-37.718862,145.0231115
Evie Meredith,12 Wallace St,meredith,VIC,3333,"50, 50",$0.45 per kWh,1.0,"33, 2",-37.7657176,145.1589446
Yea Supercharger,10 High St,yea,Victoria,3717,135,$0.78/kWh,4.0,33,-37.4927455,145.1572676
Penguin Parade Car Park,995 Ventor Rd,summerlands,VIC,3922,"50, 50",AUD 0.37 per kWh,1.0,"33, 2",,
RACV Torquay Resort,1 Great Ocean Road,jan juc,Victoria,3223,"50, 50, 350, 350, 350, 350, 50, 50","Payment Required, Discount for NRMA/RACV members",7.0,"33, 2, 33, 2, 33, 2, 33, 2",,
Newling Reserve,Newling Drive,nan,Victoria,3240,7,,1.0,25,-37.8688729,145.2126338
Wine by Sam,69 Anzac Ave,seymour,Vic,3660,"25, 25",AUD 0.40 per kWh,1.0,"33, 2",-38.0021533,145.0974829
Daylesford Town Hall,76 Vincent St,daylesford, VIC,3460,"25, 25",Payment Required $0.35 per kWh (at all times),1.0,"33, 2",-37.627671,145.0254821
Hepburn Springs Bathhouse,1 Mineral Springs Reserve Road,hepburn springs,Victoria,3461,"50, 50",$0.45 per kWh,2.0,"33, 2",-37.7481414,144.739508
Shell Coles Express Warrenheip,9395 Western Highway,warrenheip,VIC ,3352,"350, 350",$0.60 per kWh. Parking overstay charges may apply,2.0,"2, 33",,
Evie Warrigul,Queen Street,warragul,Victoria,3820,"50, 50",,1.0,"33, 2",-37.6694522,144.9350241
Evie Alexandra,8 - 10 Webster Street,alexandra,Victoria,3714,"50, 50",$0.45 per kWh,1.0,"33, 2",-37.8212422,144.9736634
Dindi Naturals,6572 Maroondah Highway,yarck,Victoria,3719,7,Free,1.0,25,-37.5772947,144.7161349
Ampol Foodary,Princes Highway,winchelsea,Victoria,,"180, 100",$0.60/kWh for pay-as-you-go charging.,1.0,"33, 2",,
RACV Ballarat,Davies Street,ballarat,Victoria,3350,350,,4.0,33,-37.8050281,144.9457629
Heathcote Visitor Centre,126 High Street ,heathcote,Victoria ,3523,"50, 50",$0.50/kWh,1.0,"33, 2",-37.7326399,144.733868
Coles Sebastopol,Midland Highway,sebastopol,VIC,,22,,2.0,25,-37.8709314,145.0193037
CTR Korumburra,Commercial Street,korumburra,Victoria,3950,"50, 50",,1.0,"33, 2",,
Evie Korumburra,Mine Road,korumburra,Victoria,3950,"50, 50",,1.0,"33, 2",,
Midlands Golf Club,330 Heinz Lane,invermay park,Victoria,3350,"22, 22, 22",$0.35 per kWh,6.0,"25, 25, 25",,
Evie Caltex Jones Street,Jones Street,avenel,Victoria,3664,"350, 350",,1.0,"33, 2",-37.8958126,144.6304628
Creswick Vicitors Information Centre,41-43 Albert Street,creswick,VIC,3363,"50, 50",AUD 0.45 per kWh,1.0,"33, 2",-37.8191777,145.0167539
Gillies Street North,Gillies Street North,ballarat,City of Ballarat,3355,6.6,Free,2.0,1,-37.8050281,144.9457629
Ballarat Supercharger,333 Gillies St,ballarat,,3355,120,AUD 0.42/kWh;other tariffs for older cars,6.0,33,-37.8050281,144.9457629
Castlemaine Market Building Car Park,33 Forest St,castlemaine,Victoria,3450,"50, 50",$0.40 per kWh parking overstay charges may apply.,2.0,"2, 33",-37.6303914,145.0273223
Tesla Supercharger Lucas,Lilburne Street,lucas,Victoria,,250,$0.78/kWh,10.0,33,,
High Street,7 High Street,harcourt,Victoria,3453,"25, 25",$0.40 per kWh. Parking overstay charges may apply,1.0,"33, 2",-37.8374349,145.1115353
The Cape Display Centre,17 Sunlight Boulevard,cape paterson,Victoria,3995,50,$0.40/kWh,2.0,33,,
CTR Leongatha,Pern Lane,leongatha,Victoria,3953,"50, 50",,1.0,"2, 33",-38.1199326,145.3182716
Evie Leongatha,McCartin Street,leongatha,Victoria,3953,"50, 50",,1.0,"2, 33",-38.1199326,145.3182716
Lorne Visitor Information Centre,15 Mountjoy Parade,lorne,VIC,3232,7,Free,1.0,1,-37.6734151,145.0272333
Chargefox Moe,Lloyd Street,moe,Victoria,3825,"50, 50, 350, 50, 50",40c/kWh,4.0,"2, 33, 33, 33, 2",-37.6132253,145.0980154
CTR Meeniyan,Tompkins Road,meeniyan,VIC,,50,,2.0,33,,
Bendigo Supercharger,Condon Street,bendigo,VIC,3550,120,AUD 0.42/kWh;other tariffs for older cars,6.0,33,-37.720574,145.047976
Euroa Supercharger,46 Kirkland Ave,euroa,,,120,AUD 0.42/kWh;other tariffs for older cars,6.0,33,-37.7639651,144.8287004
Chargefox - Euroa,Euroa Service Centre,euroa,Vic,3666,"100, 350, 50, 50, 350, 350, 50, 350",,4.0,"2, 33, 2, 33, 33, 2, 33, 2",-37.7639651,144.8287004
Bendigo Kangan Institute,62-104 Charleston Road,east bendigo,Victoria,3550,"80, None",$0.40/kWh,2.0,"33, 25",,
Bendigo Art Gallery,62 View Street,bendigo,Victoria,3550,"50, 50, 50, 50",$0.40 per kWh. Parking overstay charges may apply,2.0,"2, 33, 2, 33",-37.720574,145.047976
Colac Supercharger,144-158 Bromfield Street,colac,Victoria,3250,250,$0.78/kWh,3.0,33,-38.0761008,145.1472438
CTR Maryborough,Station St,maryborough,VIC, 3465,"50, 50",Payment Required $0.40 per kWh parking overstay charges may apply.,2.0,"33, 2",-37.850401,144.5882783
NRMA Marong,32 High Street,marong,Victoria,3515,"180, 180",66c / 60c for members,4.0,"33, 2",-37.793821,144.5506713
CTR Foster,Station Road,foster,VIC,,50,,2.0,33,-37.5902461,144.9342136
Tesla Supercharger Traralgon,Grey Street,traralgon,Vic,,250,$0.66/kWh,4.0,33,,
Charging the Regions Traralgon,49 Breed St,nan,Victoria,3844,"50, 50",$0.45 per kWh,1.0,"33, 2",-37.8688729,145.2126338
Evie Traralgon,Princes Street,traralgon,Vic,,"50, 50",,2.0,"33, 2",,
Evie Beaufort,19 Willoby St,beaufort,Vic,3373,"50, 50, 50",$0.45 per kWh. Parking overstay charges may apply,4.0,"33, 2, 33",-38.0067519,145.1779706
Newbridge Public Hall,Cnr Burke St & Wimmera Hwy,newbridge,Victoria,3551,"25, 25",Payment Required $0.40 per kWh parking overstay charges may apply.,1.0,"2, 33",-37.9715559,145.124582
Evie Avoca,High Street,avoca,VIC,,50,,2.0,33,-37.6146532,145.0933095
Tatura,104 Hogan St,tatura,Victoria,3616,"25, 25",$0.40 per kWh (at all times),2.0,"2, 33",-38.1379689,145.1628252
Heyfield Apex Park,Davis St & George Street,heyfield,Victoria,3858,50,$0.40/kWh,2.0,33,-37.8237397,144.7132186
CTR Mooroopna,"77 Midland Hwy,",mooroopna,VIC,3629,"50, 50",$0.40 per kWh. Parking overstay charges may apply,2.0,"2, 33",-37.7852115,144.5605697
Shepparton Observation Tower,"8 Fraser St, ",shepparton,VIC ,3630,"50, 50",$0.40 per kWh. Parking overstay charges may apply,2.0,"2, 33",-37.7884948,144.5582739
Evie Camperdown,2 Bath Street,camperdown,Victoria,3260,"50, 50",$0.45 per kWh,1.0,"33, 2",-37.764834,144.8219857
Evie Benalla,Denny Street,benalla,Victoria,3672,"50, 50",,1.0,"33, 2",-37.8059585,144.9432551
Inglewood Town Hall,Storm Lane,inglewood,Victoria,3517,"50, 50",$0.40 per kWh. Parking overstay charges may apply,1.0,"33, 2",-37.7924237,144.5498933
Chargefox Yarram,156 Grant Street,yarram,Victoria,3971,"50, 50",Payment Required $0.40 per kWh (at all times),1.0,"33, 2",-38.1353489,145.1666795
Evie Maffra,4 Purdy Ln,maffra,VIC,3860,"50, 50",$0.45 per kWh,1.0,"33, 2",-37.6601922,144.9408062
Port of Sale,Canal Road,sale,VIC,3850,"50, 50",$0.40,2.0,"2, 33",-37.87076,145.65249
Mansi on Raymond,476 Raymond Street,sale,Victoria,3850,22,$0.40/kWh,1.0,25,-37.87076,145.65249
Queen Street,Queen Street,nan,Victoria,3377,22,,1.0,1036,-37.8688729,145.2126338
CTR Echuca [Evie],438 High Street,echuca,Victoria,3564,"50, 50, 25, 25",$0.40,1.0,"2, 33, 33, 2",-37.7821653,144.5503709
Elizabeth Park,62 High St,ararat,Victoria,3397,22.8,0,2.0,25,-38.0625563,145.5506248
Evie Ararat,Western Highway,ararat,Victoria,3377,"50, 50",,1.0,"33, 2",-38.0625563,145.5506248
NRMA Ararat,Taylor Street,ararat,Victoria,3377,"150, 150",66c / 60c for members,4.0,"33, 2",-38.0625563,145.5506248
Glenrowan South [bp pulse],Hume Freeway,glenrowan,Victoria,3675,"75, 75",55c/kWh,2.0,"2, 33",,
Glenrowan North [bp pulse],Hume Freeway,glenrowan,Victoria,3675,"75, 75, 75",$0.55/kWh,4.0,"33, 33, 2",,
CTR Wedderburn CV008,67 High St,wedderburn,Victoria,3518,"50, 50","0.40/kWh + While parked, not charging: 4.00/hr after 60 mins",2.0,"33, 2",-37.7917062,144.5494853
Evie St Arnaud,Golden Street,st arnaud,Vic,,"50, 50",,2.0,"33, 2",-37.792199,144.5486025
Evie Wangaratta,2 - 6 Docker St,wangaratta,Victoria,3676,"50, 50",$0.45 per kWh,1.0,"33, 2",-37.787905,144.5592084
Ovens Supercharger,4994 Great Alpine RD,ovens,,,120,AUD 0.42/kWh;other tariffs for older cars,4.0,33,-37.8119107,144.8154073
Evie Stawell,Skene Street,stawell,Victoria,3380,"50, 50",,1.0,"33, 2",-38.1087492,145.2895959
Tesla Superchargers Stawell,Church Street,stawell,Victoria,3380,250,$0.66/kWh,12.0,33,-38.1087492,145.2895959
Feathertop Winery,6619 Great Alpine Road,porepunkah,Victoria,,22,Free,2.0,1036,-37.5979507,145.0753657
Evie - Bright,24 Wills St,bright,Vic,3741,"50, 50",$0.45 per kWh,1.0,"33, 2",-37.6245646,145.0136597
Evie Yarrawonga,6 - 12 Hovell Street,yarrawonga,VIC,3730,"50, 50",$0.45 per kWh. Parking overstay charges may apply,1.0,"33, 2",-37.9133914,145.1301259
The Sebel Silverwoods Yarrawong,40 Silverwoods Blvd,yarrawonga,Victoria,3730,"50, 50",$0.30 per kWh (at all times),1.0,"33, 2",-37.9133914,145.1301259
Warnambool Supercharger,21-23 Gateway Road,warnambool,Victoria,3280,250,$0.78/kWh,3.0,33,,
Warnambool Tourist Information Centre,91 Merri Street,warnambool,Victoria,2380,"50, 50",payment may be required,1.0,"2, 33",,
Callaghan Motors,1165 Raglan Parade,warnambool,Victoria,3280,22,$0.50 per kWh,2.0,25,,
Evie Dunkeld,83 Wills St,dunkeld,Victoria,3294,"50, 50",$0.45 per kWh,1.0,"33, 2",-37.766817,144.8245105
Gippsland Solar,35 Payne Street,bairnsdale,Vic,,22,$0.25 per kWh,1.0,25,,
Evie Cohuna,King George St,cohuna,VIC,3568,"50, 50",$0.40 per kWh,1.0,"33, 2",-37.7062908,144.8039161
Bairnsdale Chargefox,Nicholson Street Carpark,bairnsdale,Vic,,"50, 50",AUD 0.40 per kWh,1.0,"33, 2",,
Bairnsdale,9 Francis Street,bairnsdale,Victoria,3875,"50, 50",$0.45 per kWh. Parking overstay charges may apply,1.0,"33, 2",,
Coles Bairnsdale,35 Nicholson St,bairnsdale,Victoria,3875,250,0.70c/kwh,3.0,33,,
Bairnsdale Coles,35 Nicholson Street,bairnsdale,Victoria,3875,250,$0.70 per kWh,3.0,33,,
Yackandandah Community Development Company,16 Windham Street,yackandandah,Vic,3749,"50, 50",AUD 0.54 per kWh (3pm-10am) AUD 0.37 per kWh (10am - 3pm),2.0,"33, 2",,
Omeo - Tongio Road,Tongio Road,omeo,Vic,3898,"50, 50",AUD 0.40 per kWh,2.0,"33, 2",-37.8800365,144.6170498
Wycheproof,Fairview Street,wycheproof,Victoria,3527,"50, 50",$0.40 per kWh. Parking overstay charges may apply,2.0,"33, 2",-37.5432106,145.0085889
NRMA Wycheproof,361 Broadway,wycheproof,Victoria,3527,"150, 150",66c / 60c for members,4.0,"33, 2",-37.5432106,145.0085889
Chargefox - Barnawartha North,Murray Valley Hwy,barnawartha north,Vic,3690,"50, 50, 100, 350, 350, 350, 50, 50",AUD 0.65/kWh,4.0,"2, 33, 2, 33, 33, 2, 33, 2",,
Evie Kerang,1 -3 Albert St,kerang,VIC,3579,"50, 50",$0.40 per kWh. Idle fee $4 per hour,1.0,"33, 2",-37.7200123,145.0271063
Foodworks Baranduda,34 Verbena Street,baranduda,Victoria,3691,11,$0.23/kWh,4.0,1036,,
Deni RSL,72 End St,deniliquin,NSW,2710,22,FREE,8.0,25,,
Wodonga Supercharger,5-13 Havelock Street,wodonga,,3690,120,AUD 0.42/kWh;other tariffs for older cars,6.0,33,-37.6755673,144.9898056
Evie Hamilton,Scoresby Street,hamilton,VIC,,"50, 50",,2.0,"33, 2",-37.8758579,145.1284529
Tesla Supercharger Albury,Stanley Street,albury,New South Wales,2640,250,$0.69/kWh,12.0,33,-37.5442344,145.0076408
Albury Waste Management Centre,565 Mudge St,hamilton valley,New South Wales,2641,"50, 50",$0.15 per kWh (at all times) on the Chargefox network,1.0,"2, 33",,
Wuality Resort Siesta,422 Wagga Road,lavington,New South Wales,2641,"7, 7, 7, 7",Free,4.0,"25, 25, 25, 25",-37.603329,144.9253134
Evie Lakes Entrance,2 Marine Pde,lakes entrance,VIC,3909,"50, 50",$0.45 per kWh. Parking overstay charges may apply,1.0,"33, 2",,
Lakes Entrance RSL,221 The Esplanade,lakes entrance,Victoria,3909,22,30c/kWh,1.0,25,,
RACV - Horsham,126 Baillie St,horsham,Victoria,3400,"350, 50, 350, 50",,4.0,"33, 33, 2, 2",-38.102184,145.2949057
Horsham Supercharger,126 Wilson St,horsham,,3400,250,AUD 0.42/kWh;other tariffs for older cars,3.0,33,-38.102184,145.2949057
NRMA Jerilderie,Powell Street,jerilderie,New South Wales,2716,"50, 50",FREE,1.0,"33, 2",-38.0097571,145.326648
Evie Warracknabeal,18 - 20 Woolcock Street,warracknabeal,VIC,3393,"50, 50",$0.45 per kWh,1.0,"33, 2",-37.7853138,144.5406661
Evie Portland,Henty Street,portland,VIC,,"50, 50",,2.0,"33, 2",-37.9359053,145.2051222
Lochiel Street,Lochiel Street,dimboola,Victoria,3414,22,,1.0,25,-37.6804576,144.9123982
CTR Swan Hill CV002,135 Curlewis Street,swan hill,Victoria,3585,"50, 50",Payment Required $0.40 per kWh parking overstay charges may apply.,2.0,"33, 2",,
Orbost Chargefox,Wolseley Street,orbost,Victoria,,"50, 50",AUD 0.40 per kWh,1.0,"33, 2",-37.8379885,145.2121845
Tesla Supercharger Holbrook,Swift Street,holbrook,New South Wales,2644,250,$0.69 / kWh,1.0,33,-37.7702694,144.9361781
Holbrook [NRMA],Submarine Park,holbrook,NSW,,"50, 50",,1.0,"33, 2",-37.7702694,144.9361781
CTR Sea Lake,111 Best Street,sea lake,Victoria,3533,"50, 50",Payment Required $0.40 per kWh parking overstay charges may apply.,2.0,"2, 33",,
Evie Dartmoor,73 Greenham St,dartmoor,VIC,3304,"50, 50",$0.45 per kWh,1.0,"33, 2",-37.705345,144.6794568
Anzac Ave Parking,12 Anzac Ave,edenhope,VIC ,3318,"50, 50",Payment Required $0.40/kWh,1.0,"33, 2",-37.8054372,145.3280915
Nelson St Parking/Charging,111 Nelson St,nhill,Victoria,3418,22,Free,2.0,25,-37.6730847,144.9282577
Snowy River Ave Car Park,3 Snowy River Ave,jindabyne,NSW,2627,"50, 50",Chargers free of charge for now but will require you to be a member in the future or you will need to pay per charge.,2.0,"33, 2",-37.6403391,145.084278
